OBJECT_NAME,OBJECT_ID,EPOCH,MEAN_MOTION,ECCENTRICITY,INCLINATION,RA_OF_ASC_NODE,ARG_OF_PERICENTER,MEAN_ANOMALY,EPHEMERIS_TYPE,CLASSIFICATION_TYPE,NORAD_CAT_ID,ELEMENT_SET_NO,REV_AT_EPOCH,BSTAR,MEAN_MOTION_DOT,MEAN_MOTION_DDOT
LEMUR-1,2014-033AL,2026-06-17T21:36:23.440320,14.85249228,.00496613,97.7878,318.6894,76.3575,284.3163,0,U,40044,999,64557,.19560169E-3,.166E-4,0
LEMUR-2-GREENBERG,2017-042N,2026-06-17T11:29:53.306016,15.31334775,.00085082,97.3816,349.1017,13.0067,347.1392,0,U,42837,999,48843,.4123969E-3,.12423E-3,0
LEMUR-2-ANDIS,2017-042P,2026-06-18T00:42:09.070560,15.34870331,.00080864,97.3675,349.8363,9.2976,350.8415,0,U,42838,999,48858,.47989937E-3,.16179E-3,0
LEMUR-2-MONSON,2017-042Q,2026-06-17T11:43:25.675104,15.28016395,.00061838,97.4076,349.0830,5.1720,354.9582,0,U,42839,999,48821,.3892843E-3,.10574E-3,0
LEMUR-2-FURIAUS,2017-042R,2026-06-17T23:54:32.608800,15.30274083,.00081324,97.3768,347.5694,66.7209,293.4887,0,U,42840,999,48833,.5047307E-3,.14733E-3,0
LEMUR-2-PETERG,2017-042S,2026-06-18T00:20:04.770240,15.33910166,.00031681,97.3988,354.0448,353.6604,6.4598,0,U,42841,999,48856,.5258119E-3,.1719E-3,0
LEMUR-2-DEMBITZ,2017-042T,2026-06-18T00:23:08.387520,15.30315745,.00066738,97.3823,350.6142,26.0252,334.1323,0,U,42842,999,48847,.47770946E-3,.13952E-3,0
LEMUR-2-ZACHARY,2017-042W,2026-06-18T06:53:42.833184,15.50342446,.00028242,97.3592,0.9468,28.5304,331.6102,0,U,42845,999,48937,.63024911E-3,.35767E-3,0
LEMUR-2-AMANDA-SVANTE,2021-034B,2026-06-18T03:21:43.776864,15.34343386,.00023651,97.5758,247.4511,204.9411,155.1718,0,U,48269,999,28120,.73130101E-3,.24287E-3,0
LEMUR-2-SPECIAL-K,2021-034F,2026-06-18T04:08:40.575840,15.64715764,.00044297,97.5653,256.1010,227.9226,132.1657,0,U,48273,999,28184,.12413353E-2,.121855E-2,0
LEMUR-2-EMBRIONOVIS,2023-084AQ,2026-06-17T07:57:54.861408,15.37551092,.00077324,97.6296,312.5361,319.5567,40.5101,0,U,56970,999,16770,.28629971E-3,.10473E-3,0
LEMUR-2-DEVERILL-M-T,2023-100F,2026-06-18T01:54:39.019392,15.39791636,.00062214,99.4465,208.0952,47.3158,312.8605,0,U,57391,999,16138,.59468619E-3,.23511E-3,0
LEMUR-2-BASS,2023-174D,2026-06-17T19:03:11.541312,15.43111358,.00077813,97.3847,253.5145,160.0647,200.0906,0,U,58259,999,14545,.32694919E-3,.14398E-3,0
LEMUR-2-JK0903EM1407,2023-174CJ,2026-06-17T18:55:37.968960,15.51707078,.0005745,97.3924,259.2749,118.3602,241.8230,0,U,58336,999,14582,.39821125E-3,.2366E-3,0
LEMUR-2-MJR092620,2023-174CN,2026-06-17T19:21:20.313504,15.44894572,.00071226,97.3976,258.8465,115.8052,244.3932,0,U,58340,999,14574,.34051826E-3,.15933E-3,0
LEMUR-2-NIMBUS2000,2024-022A,2026-06-18T02:50:32.894592,15.40020976,.00103426,97.4102,19.1308,113.0084,247.2254,0,U,58899,999,13241,.33984147E-3,.13515E-3,0
LEMUR-2-VALHALLA,2024-022B,2026-06-18T02:45:23.147136,15.39695563,.00108689,97.4101,19.1175,109.2315,251.0108,0,U,58900,999,13241,.31940847E-3,.12563E-3,0
LEMUR-2-CAEL,2024-022E,2026-06-18T02:58:24.337056,15.40999982,.00092421,97.4084,20.0641,94.6511,265.5791,0,U,58903,999,13248,.33732743E-3,.13851E-3,0
LEMUR-2-JOHNNYTRUONG,2024-043BA,2026-06-17T23:36:28.897920,15.60518881,.00048412,97.5384,320.7354,173.9857,186.1459,0,U,59146,999,12816,.40066574E-3,.3299E-3,0
LEMUR-2-TOMATOKECHUP,2024-149D,2026-06-17T18:12:38.765664,15.36043764,.00015019,97.3800,250.8069,174.1749,185.9513,0,U,60471,999,10225,.26226038E-3,.9126E-4,0
LEMUR-2-STELLA,2024-149BT,2026-06-18T03:22:42.338784,15.11826461,.00016564,97.6735,251.5998,95.6833,264.4585,0,U,60533,999,10064,.46523695E-3,.7886E-4,0
LEMUR-2-MARHISYAM,2024-149BW,2026-06-18T06:05:32.900928,15.11277876,.00032493,97.6877,252.1632,116.4547,243.7016,0,U,60536,999,10064,.51196952E-3,.8555E-4,0
LEMUR-2-AHMED-ASRAR,2024-149DN,2026-06-18T03:42:43.847424,15.12731576,.0001806,97.7006,254.1605,42.6568,317.4802,0,U,60576,999,10071,.49861612E-3,.8674E-4,0
LEMUR-2-LLOYD,2024-149DP,2026-06-17T18:31:04.830816,15.09249553,.00048436,97.6748,249.9004,138.8319,221.3276,0,U,60577,999,10048,.56011309E-3,.8858E-4,0
LEMUR-2-SQUIRRELCOMM,2024-149DQ,2026-06-18T04:26:16.835712,15.07157507,.00062097,97.6705,250.0929,58.3189,301.8643,0,U,60578,999,10055,.31805921E-3,.4721E-4,0
LEMUR-2-SIERRINI,2024-149DR,2026-06-18T05:04:23.027232,15.10964142,.00059604,97.6841,251.8080,161.3856,198.7592,0,U,60579,999,10061,.47247768E-3,.7823E-4,0
LEMUR-2-WILSON,2025-009CP,2026-06-17T18:20:30.452640,14.95167962,.00042451,97.7026,247.2186,57.5383,302.6248,0,U,62694,999,7744,.21834195E-3,.2341E-4,0
LEMUR-2-STAR-FOX,2025-009CR,2026-06-18T02:12:05.942016,15.02516631,.00039487,97.6956,250.6938,109.3823,250.7829,0,U,62696,999,7769,.49722041E-3,.6548E-4,0
LEMUR-2-ARIANNA,2025-009CU,2026-06-17T21:22:01.344576,15.02495666,.0004309,97.6894,250.2682,115.4191,244.7480,0,U,62699,999,7766,.49787281E-3,.6553E-4,0
