LEMUR-1                 
1 40044U 14033AL  26168.90027130  .00001660  00000+0  19560-3 0  9994
2 40044  97.7878 318.6894 0049661  76.3575 284.3163 14.85249228645577
LEMUR-2-GREENBERG       
1 42837U 17042N   26168.47908919  .00012423  00000+0  41240-3 0  9993
2 42837  97.3816 349.1017 0008508  13.0067 347.1392 15.31334775488438
LEMUR-2-ANDIS           
1 42838U 17042P   26169.02927165  .00016179  00000+0  47990-3 0  9990
2 42838  97.3675 349.8363 0008086   9.2976 350.8415 15.34870331488589
LEMUR-2-MONSON          
1 42839U 17042Q   26168.48849161  .00010574  00000+0  38928-3 0  9993
2 42839  97.4076 349.0830 0006183   5.1720 354.9582 15.28016395488210
LEMUR-2-FURIAUS         
1 42840U 17042R   26168.99621075  .00014733  00000+0  50473-3 0  9993
2 42840  97.3768 347.5694 0008132  66.7209 293.4887 15.30274083488332
LEMUR-2-PETERG          
1 42841U 17042S   26169.01394410  .00017190  00000+0  52581-3 0  9990
2 42841  97.3988 354.0448 0003168 353.6604   6.4598 15.33910166488566
LEMUR-2-DEMBITZ         
1 42842U 17042T   26169.01606930  .00013952  00000+0  47771-3 0  9991
2 42842  97.3823 350.6142 0006673  26.0252 334.1323 15.30315745488478
LEMUR-2-ZACHARY         
1 42845U 17042W   26169.28730131  .00035767  00000+0  63025-3 0  9992
2 42845  97.3592   0.9468 0002824  28.5304 331.6102 15.50342446489376
LEMUR-2-AMANDA-SVANTE   
1 48269U 21034B   26169.14009001  .00024287  00000+0  73130-3 0  9997
2 48269  97.5758 247.4511 0002365 204.9411 155.1718 15.34343386281204
LEMUR-2-SPECIAL-K       
1 48273U 21034F   26169.17269185  .00121855  00000+0  12413-2 0  9991
2 48273  97.5653 256.1010 0004429 227.9226 132.1657 15.64715764281849
LEMUR-2-EMBRIONOVIS     
1 56970U 23084AQ  26168.33188497  .00010473  00000+0  28630-3 0  9996
2 56970  97.6296 312.5361 0007732 319.5567  40.5101 15.37551092167704
LEMUR-2-DEVERILL-M-T    
1 57391U 23100F   26169.07961828  .00023511  00000+0  59469-3 0  9993
2 57391  99.4465 208.0952 0006221  47.3158 312.8605 15.39791636161383
LEMUR-2-BASS            
1 58259U 23174D   26168.79388358  .00014398  00000+0  32695-3 0  9992
2 58259  97.3847 253.5145 0007781 160.0647 200.0906 15.43111358145459
LEMUR-2-JK0903EM1407    
1 58336U 23174CJ  26168.78863390  .00023660  00000+0  39821-3 0  9991
2 58336  97.3924 259.2749 0005745 118.3602 241.8230 15.51707078145822
LEMUR-2-MJR092620       
1 58340U 23174CN  26168.80648511  .00015933  00000+0  34052-3 0  9990
2 58340  97.3976 258.8465 0007122 115.8052 244.3932 15.44894572145742
LEMUR-2-NIMBUS2000      
1 58899U 24022A   26169.11843628  .00013515  00000+0  33984-3 0  9990
2 58899  97.4102  19.1308 0010342 113.0084 247.2254 15.40020976132414
LEMUR-2-VALHALLA        
1 58900U 24022B   26169.11485124  .00012563  00000+0  31941-3 0  9999
2 58900  97.4101  19.1175 0010868 109.2315 251.0108 15.39695563132414
LEMUR-2-CAEL            
1 58903U 24022E   26169.12389279  .00013851  00000+0  33733-3 0  9999
2 58903  97.4084  20.0641 0009242  94.6511 265.5791 15.40999982132484
LEMUR-2-JOHNNYTRUONG    
1 59146U 24043BA  26168.98366780  .00032990  00000+0  40067-3 0  9990
2 59146  97.5384 320.7354 0004841 173.9857 186.1459 15.60518881128169
LEMUR-2-TOMATOKECHUP    
1 60471U 24149D   26168.75878201  .00009126  00000+0  26226-3 0  9997
2 60471  97.3800 250.8069 0001501 174.1749 185.9513 15.36043764102258
LEMUR-2-STELLA          
1 60533U 24149BT  26169.14076781  .00007886  00000+0  46524-3 0  9997
2 60533  97.6735 251.5998 0001656  95.6833 264.4585 15.11826461100647
LEMUR-2-MARHISYAM       
1 60536U 24149BW  26169.25385302  .00008555  00000+0  51197-3 0  9990
2 60536  97.6877 252.1632 0003249 116.4547 243.7016 15.11277876100642
LEMUR-2-AHMED-ASRAR     
1 60576U 24149DN  26169.15467416  .00008674  00000+0  49862-3 0  9998
2 60576  97.7006 254.1605 0001806  42.6568 317.4802 15.12731576100716
LEMUR-2-LLOYD           
1 60577U 24149DP  26168.77158369  .00008858  00000+0  56011-3 0  9998
2 60577  97.6748 249.9004 0004843 138.8319 221.3276 15.09249553100487
LEMUR-2-SQUIRRELCOMM    
1 60578U 24149DQ  26169.18491708  .00004721  00000+0  31806-3 0  9992
2 60578  97.6705 250.0929 0006209  58.3189 301.8643 15.07157507100554
LEMUR-2-SIERRINI        
1 60579U 24149DR  26169.21137763  .00007823  00000+0  47248-3 0  9998
2 60579  97.6841 251.8080 0005960 161.3856 198.7592 15.10964142100610
LEMUR-2-WILSON          
1 62694U 25009CP  26168.76424135  .00002341  00000+0  21834-3 0  9998
2 62694  97.7026 247.2186 0004245  57.5383 302.6248 14.95167962 77443
LEMUR-2-STAR-FOX        
1 62696U 25009CR  26169.09173544  .00006548  00000+0  49722-3 0  9991
2 62696  97.6956 250.6938 0003948 109.3823 250.7829 15.02516631 77698
LEMUR-2-ARIANNA         
1 62699U 25009CU  26168.89029334  .00006553  00000+0  49787-3 0  9995
2 62699  97.6894 250.2682 0004309 115.4191 244.7480 15.02495666 77669
